NORAD_CAT_ID,OBJECT_NAME,OBJECT_TYPE,EPOCH,MEAN_MOTION,ECCENTRICITY,INCLINATION,RA_OF_ASC_NODE,ARG_OF_PERICENTER,MEAN_ANOMALY,BSTAR,MEAN_MOTION_DOT,MEAN_MOTION_DDOT,TLE_LINE0,TLE_LINE1,TLE_LINE2,SEMIMAJOR_AXIS,PERIOD,APOGEE,PERIGEE,DECAYED
44767,STARLINK-1062,PAYLOAD,2021-08-15 18:26:29,15.06390786,0.0001985,53.0537,149.7252,65.1651,294.9544,6.213800000000001e-05,6.44e-06,0.0,0 STARLINK-1062,1 44767U 19074BG  21227.76840056  .00000644  00000-0  62138-4 0  9997,2 44767  53.0537 149.7252 0001985  65.1651 294.9544 15.06390786 96951,6925.377,95.593,548.616,545.867,0.0
44767,STARLINK-1062,PAYLOAD,2021-08-16 03:59:43,15.06393957,0.0002022,53.0538,147.9382,65.8196,294.3004,7.5897e-05,8.49e-06,0.0,0 STARLINK-1062,1 44767U 19074BG  21228.16648064  .00000849  00000-0  75897-4 0  9990,2 44767  53.0538 147.9382 0002022  65.8196 294.3004 15.06393957 97016,6925.3669999999975,95.593,548.632,545.832,0.0
44767,STARLINK-1062,PAYLOAD,2021-08-16 11:57:25,15.0639619,0.000203,53.0539,146.44899999999996,66.2863,293.8339,7.4381e-05,8.26e-06,0.0,0 STARLINK-1062,1 44767U 19074BG  21228.49821388  .00000826  00000-0  74381-4 0  9990,2 44767  53.0539 146.4490 0002030  66.2863 293.8339 15.06396190 97237,6925.36,95.592,548.631,545.819,0.0
44767,STARLINK-1062,PAYLOAD,2021-08-16 18:19:35,15.06396417,0.0002047,53.0539,145.2575,67.2572,292.8634,6.8743e-05,7.42e-06,0.0,0 STARLINK-1062,1 44767U 19074BG  21228.76360152  .00000742  00000-0  68743-4 0  9999,2 44767  53.0539 145.2575 0002047  67.2572 292.8634 15.06396417 97109,6925.36,95.592,548.6419999999998,545.807,0.0
44767,STARLINK-1062,PAYLOAD,2021-08-17 11:50:30,15.064018300000004,0.0002104,53.0539,141.9812,67.9884,292.1328,8.163800000000001e-05,9.35e-06,0.0,0 STARLINK-1062,1 44767U 19074BG  21229.49341216  .00000935  00000-0  81638-4 0  9992,2 44767  53.0539 141.9812 0002104  67.9884 292.1328 15.06401830 97214,6925.343000000003,95.592,548.665,545.751,0.0
44767,STARLINK-1062,PAYLOAD,2021-08-17 18:12:40,15.06401822,0.0002122,53.0538,140.7896,69.2795,290.8421,6.434899999999999e-05,6.77e-06,0.0,0 STARLINK-1062,1 44767U 19074BG  21229.75879933  .00000677  00000-0  64349-4 0  9996,2 44767  53.0538 140.7896 0002122  69.2795 290.8421 15.06401822 97421,6925.343000000003,95.592,548.678,545.738,0.0
44767,STARLINK-1062,PAYLOAD,2021-08-18 05:21:26,15.06405152,0.0002153,53.0538,138.7047,70.2706,289.8515,7.669e-05,8.61e-06,0.0,0 STARLINK-1062,1 44767U 19074BG  21230.22322295  .00000861  00000-0  76690-4 0  9991,2 44767  53.0538 138.7047 0002153  70.2706 289.8515 15.06405152 97325,6925.333000000001,95.592,548.689,545.707,0.0
44767,STARLINK-1062,PAYLOAD,2021-08-19 03:39:00,15.06393937,0.0002188,53.0539,134.5348,71.6963,288.4264,-5.9084e-05,-1.162e-05,0.0,0 STARLINK-1062,1 44767U 19074BG  21231.15208940 -.00001162  00000-0 -59084-4 0  9999,2 44767  53.0539 134.5348 0002188  71.6963 288.4264 15.06393937 97639,6925.3669999999975,95.593,548.747,545.717,0.0
44767,STARLINK-1062,PAYLOAD,2021-08-19 10:01:09,15.06395403,0.0002187,53.0539,133.3435,71.8704,288.2523,-4.3463e-05,-9.29e-06,0.0,0 STARLINK-1062,1 44767U 19074BG  21231.41747564 -.00000929  00000-0 -43463-4 0  9992,2 44767  53.0539 133.3435 0002187  71.8704 288.2523 15.06395403 97509,6925.363,95.592,548.742,545.7130000000002,0.0
44767,STARLINK-1062,PAYLOAD,2021-08-19 17:58:51,15.06395674,0.0002198,53.054,131.8542,72.4118,287.7111,-4.5855e-05,-9.65e-06,0.0,0 STARLINK-1062,1 44767U 19074BG  21231.74921015 -.00000965  00000-0 -45855-4 0  9990,2 44767  53.0540 131.8542 0002198  72.4118 287.7111 15.06395674 97553,6925.361999999999,95.592,548.749,545.705,0.0
44767,STARLINK-1062,PAYLOAD,2021-08-20 09:54:15,15.06398352,0.0002199,53.0539,128.8758,72.7906,287.3324,-2.8341e-05,-7.04e-06,0.0,0 STARLINK-1062,1 44767U 19074BG  21232.41267692 -.00000704  00000-0 -28341-4 0  9991,2 44767  53.0539 128.8758 0002199  72.7906 287.3324 15.06398352 97654,6925.354,95.592,548.741,545.696,0.0
44767,STARLINK-1062,PAYLOAD,2021-08-21 09:47:20,15.063970199999998,0.0002224,53.0537,124.408,74.1028,286.0206,9.2581e-05,1.097e-05,0.0,0 STARLINK-1062,1 44767U 19074BG  21233.40787866  .00001097  00000-0  92581-4 0  9992,2 44767  53.0537 124.4080 0002224  74.1028 286.0206 15.06397020 97805,6925.358,95.592,548.763,545.682,0.0
44767,STARLINK-1062,PAYLOAD,2021-08-21 17:45:02,15.06398415,0.0002241,53.0535,122.9185,75.1841,284.9396,8.0317e-05,9.15e-06,0.0,0 STARLINK-1062,1 44767U 19074BG  21233.73961245  .00000915  00000-0  80317-4 0  9995,2 44767  53.0535 122.9185 0002241  75.1841 284.9396 15.06398415 98026,6925.353,95.592,548.77,545.6659999999998,0.0
44767,STARLINK-1062,PAYLOAD,2021-08-22 09:40:25,15.06403452,0.0002273,53.0538,119.9404,77.1846,282.9397,9.1897e-05,1.087e-05,0.0,0 STARLINK-1062,1 44767U 19074BG  21234.40307596  .00001087  00000-0  91897-4 0  9999,2 44767  53.0538 119.9404 0002273  77.1846 282.9397 15.06403452 97959,6925.3380000000025,95.592,548.7769999999998,545.629,0.0
44767,STARLINK-1062,PAYLOAD,2021-08-22 22:24:45,15.06391343,0.0002347,53.0543,117.5576,79.1993,280.926,-4.0782e-05,-8.89e-06,0.0,0 STARLINK-1062,1 44767U 19074BG  21234.93386261 -.00000889  00000-0 -40782-4 0  9991,2 44767  53.0543 117.5576 0002347  79.1993 280.9260 15.06391343 98038,6925.375,95.593,548.865,545.615,0.0
44767,STARLINK-1062,PAYLOAD,2021-08-23 00:00:18,15.06390695,0.0002285,53.0537,117.2594,79.7821,280.3426,-6.5036e-05,-1.25e-05,0.0,0 STARLINK-1062,1 44767U 19074BG  21235.00021061 -.00001250  00000-0 -65036-4 0  9996,2 44767  53.0537 117.2594 0002285  79.7821 280.3426 15.06390695 98212,6925.377,95.593,548.825,545.66,0.0
44767,STARLINK-1062,PAYLOAD,2021-08-23 09:33:32,15.06391685,0.0002291,53.0537,115.4724,80.2387,279.8861,-5.3369e-05,-1.077e-05,0.0,0 STARLINK-1062,1 44767U 19074BG  21235.39829182 -.00001077  00000-0 -53369-4 0  9991,2 44767  53.0537 115.4724 0002291  80.2387 279.8861 15.06391685 98102,6925.374,95.593,548.826,545.6519999999998,0.0
44767,STARLINK-1062,PAYLOAD,2021-08-23 22:17:51,15.0639311,0.0002286,53.0537,113.0891,81.8124,278.3124,-5.3183e-05,-1.074e-05,0.0,0 STARLINK-1062,1 44767U 19074BG  21235.92906683 -.00001074  00000-0 -53183-4 0  9993,2 44767  53.0537 113.0891 0002286  81.8124 278.3124 15.06393110 98180,6925.37,95.593,548.818,545.6519999999998,0.0
44767,STARLINK-1062,PAYLOAD,2021-08-24 09:26:37,15.06394848,0.0002285,53.0537,111.0041,82.3231,277.8017,-4.8379e-05,-1.002e-05,0.0,0 STARLINK-1062,1 44767U 19074BG  21236.39349484 -.00001002  00000-0 -48379-4 0  9997,2 44767  53.0537 111.0041 0002285  82.3231 277.8017 15.06394848 98420,6925.364000000001,95.592,548.812,545.6469999999998,0.0
44767,STARLINK-1062,PAYLOAD,2021-08-24 22:10:57,15.06387577,0.0002292,53.0537,108.622,81.4048,278.72,6.5353e-05,6.91e-06,0.0,0 STARLINK-1062,1 44767U 19074BG  21236.92427232  .00000691  00000-0  65353-4 0  9996,2 44767  53.0537 108.6220 0002292  81.4048 278.7200 15.06387577 98330,6925.387,95.593,548.839,545.664,0.0
44767,STARLINK-1062,PAYLOAD,2021-08-25 01:22:01,15.06388339,0.0002294,53.0538,108.0264,81.4017,278.7232,7.0332e-05,7.66e-06,0.0,0 STARLINK-1062,1 44767U 19074BG  21237.05696626  .00000766  00000-0  70332-4 0  9992,2 44767  53.0538 108.0264 0002294  81.4017 278.7232 15.06388339 98355,6925.384,95.593,548.8380000000002,545.661,0.0
44767,STARLINK-1062,PAYLOAD,2021-08-25 18:52:58,15.06392713,0.0002301,53.0538,104.7501,82.4808,277.6442,6.933300000000001e-05,7.51e-06,0.0,0 STARLINK-1062,1 44767U 19074BG  21237.78678302  .00000751  00000-0  69333-4 0  9996,2 44767  53.0538 104.7501 0002301  82.4808 277.6442 15.06392713 98633,6925.371,95.593,548.8290000000002,545.6419999999998,0.0
44767,STARLINK-1062,PAYLOAD,2021-08-25 22:04:02,15.06393731,0.000231,53.0538,104.1543,82.775,277.3502,7.5205e-05,8.38e-06,0.0,0 STARLINK-1062,1 44767U 19074BG  21237.91947632  .00000838  00000-0  75205-4 0  9997,2 44767  53.0538 104.1543 0002310  82.7750 277.3502 15.06393731 98480,6925.368,95.593,548.8330000000002,545.633,0.0
44767,STARLINK-1062,PAYLOAD,2021-08-26 07:37:16,15.06396385,0.0002315,53.0539,102.3672,83.3461,276.7792,8.868e-05,1.039e-05,0.0,0 STARLINK-1062,1 44767U 19074BG  21238.31755639  .00001039  00000-0  88680-4 0  9991,2 44767  53.0539 102.3672 0002315  83.3461 276.7792 15.06396385 98544,6925.36,95.592,548.828,545.621,0.0
44767,STARLINK-1062,PAYLOAD,2021-08-27 07:30:22,15.06401978,0.0002363,53.0541,97.8995,85.2643,274.8616,9.3687e-05,1.114e-05,0.0,0 STARLINK-1062,1 44767U 19074BG  21239.31275521  .00001114  00000-0  93687-4 0  9996,2 44767  53.0541  97.8995 0002363  85.2643 274.8616 15.06401978 98694,6925.342,95.592,548.844,545.571,0.0
44767,STARLINK-1062,PAYLOAD,2021-08-27 18:39:08,15.06405574,0.0002351,53.054,95.8145,86.7556,273.3702,8.183100000000001e-05,9.37e-06,0.0,0 STARLINK-1062,1 44767U 19074BG  21239.77717964  .00000937  00000-0  81831-4 0  9998,2 44767  53.0540  95.8145 0002351  86.7556 273.3702 15.06405574 98768,6925.331,95.592,548.825,545.568,0.0
44767,STARLINK-1062,PAYLOAD,2021-08-28 07:23:27,15.06396565,0.0002342,53.0537,93.4318,87.6246,272.5011,-8.8081e-06,-4.13e-06,0.0,0 STARLINK-1062,1 44767U 19074BG  21240.30796232 -.00000413  00000-0 -88081-5 0  9990,2 44767  53.0537  93.4318 0002342  87.6246 272.5011 15.06396565 98848,6925.359,95.592,548.846,545.602,0.0
44767,STARLINK-1062,PAYLOAD,2021-08-28 20:07:46,15.06401113,0.0002322,53.0538,91.0487,89.2379,270.8876,3.351e-06,-2.32e-06,0.0,0 STARLINK-1062,1 44767U 19074BG  21240.83873344 -.00000232  00000-0  33510-5 0  9993,2 44767  53.0538  91.0487 0002322  89.2379 270.8876 15.06401113 98928,6925.345,95.592,548.818,545.602,0.0
44767,STARLINK-1062,PAYLOAD,2021-08-29 02:29:55,15.06403456,0.0002324,53.0538,89.8573,89.3895,270.736,2.2653e-05,5.6e-07,0.0,0 STARLINK-1062,1 44767U 19074BG  21241.10411782  .00000056  00000-0  22653-4 0  9996,2 44767  53.0538  89.8573 0002324  89.3895 270.7360 15.06403456 99138,6925.3380000000025,95.592,548.812,545.594,0.0
